NEXTSAT-1               
1 43811U 18099BF  26068.68342010  .00004546  00000+0  29857-3 0  9992
2 43811  97.4203 114.8574 0011320 323.9610  36.0854 15.08057555396886
STARLINK-34786          
1 65391U 25191N   26068.63151543  .00006776  00000+0  47339-3 0  9996
2 65391  97.6017 301.5159 0003080  76.0667 284.0902 15.05647063 30266
